[Satellite]
VERSION=1.1
NAME=CZ-6A DEB
NICKNAME=CZ-6A DEB
TLE1=1 54302U 22151AV  22342.48364243  .00002720  00000+0  66820-3 0  9997
TLE2=2 54302  98.9624 349.6539 0141458 158.4078 202.3160 14.47348451  3265
STATUS=0
